STARLINK-5303           
1 55630U 23021C   26068.80262972  .00000032  00000+0  10498-4 0  9995
2 55630  70.0006 204.2304 0003064 269.6598  90.4210 14.98330043168317
KORSAT-2                
1 62377U 24247A   26068.41070335  .00005163  00000+0  43498-3 0  9994
2 62377  45.4085 225.0391 0009773  57.7708 302.4117 14.99271316 66592
